{
  "type": "FeatureCollection",
  "features": [
    {
      "type": "Feature",
      "properties": {
        "norad_id": 37330,
        "name": "COSMOS 2251 DEB",
        "group": "cosmos-2251-debris",
        "lat": -28.428267501056617,
        "lon": 108.65213734171229,
        "alt_km": 695.4111717550368,
        "timestamp": "2025-12-20T18:51:32.110819+00:00",
        "meta_object_name": "COSMOS 2251 DEB",
        "meta_object_id": "1993-036BKW",
        "meta_epoch": "2025-12-20T12:58:19.660512",
        "meta_mean_motion": 14.5955958,
        "meta_eccentricity": 0.00567957,
        "meta_inclination": 74.0188,
        "meta_ra_of_asc_node": 280.1955,
        "meta_arg_of_pericenter": 126.4731,
        "meta_mean_anomaly": 234.1688,
        "meta_ephemeris_type": 0,
        "meta_classification_type": "U",
        "meta_norad_cat_id": 37330,
        "meta_element_set_no": 999,
        "meta_rev_at_epoch": 86482,
        "meta_bstar": 0.00019400298,
        "meta_mean_motion_dot": 9.12e-06,
        "meta_mean_motion_ddot": 0,
        "tle_line1": "1 37330U 93036BKW 25354.54050533  .00000912  00000+0  19400-3 0  9999",
        "tle_line2": "2 37330  74.0188 280.1955 0056795 126.4731 234.1688 14.59559580864823"
      },
      "geometry": {
        "type": "Point",
        "coordinates": [
          108.65213734171229,
          -28.428267501056617
        ]
      }
    },
    {
      "type": "Feature",
      "properties": {
        "norad_id": 37331,
        "name": "COSMOS 2251 DEB",
        "group": "cosmos-2251-debris",
        "lat": -18.112067640964256,
        "lon": 47.79952859724261,
        "alt_km": 775.1589727689325,
        "timestamp": "2025-12-20T18:51:32.110829+00:00",
        "meta_object_name": "COSMOS 2251 DEB",
        "meta_object_id": "1993-036BKX",
        "meta_epoch": "2025-12-16T21:15:09.521568",
        "meta_mean_motion": 14.35033598,
        "meta_eccentricity": 0.00552693,
        "meta_inclination": 74.0751,
        "meta_ra_of_asc_node": 60.2873,
        "meta_arg_of_pericenter": 73.2754,
        "meta_mean_anomaly": 287.4454,
        "meta_ephemeris_type": 0,
        "meta_classification_type": "U",
        "meta_norad_cat_id": 37331,
        "meta_element_set_no": 999,
        "meta_rev_at_epoch": 84819,
        "meta_bstar": 0.00035206854,
        "meta_mean_motion_dot": 9.96e-06,
        "meta_mean_motion_ddot": 0,
        "tle_line1": "1 37331U 93036BKX 25350.88552687  .00000996  00000+0  35207-3 0  9995",
        "tle_line2": "2 37331  74.0751  60.2873 0055269  73.2754 287.4454 14.35033598848199"
      },
      "geometry": {
        "type": "Point",
        "coordinates": [
          47.79952859724261,
          -18.112067640964256
        ]
      }
    },
    {
      "type": "Feature",
      "properties": {
        "norad_id": 37336,
        "name": "COSMOS 2251 DEB",
        "group": "cosmos-2251-debris",
        "lat": -69.15455480171521,
        "lon": -174.75386728409757,
        "alt_km": 804.2553175502653,
        "timestamp": "2025-12-20T18:51:32.110839+00:00",
        "meta_object_name": "COSMOS 2251 DEB",
        "meta_object_id": "1993-036BLC",
        "meta_epoch": "2025-12-17T07:33:13.175712",
        "meta_mean_motion": 14.32760586,
        "meta_eccentricity": 0.00290162,
        "meta_inclination": 74.0414,
        "meta_ra_of_asc_node": 322.8603,
        "meta_arg_of_pericenter": 39.1846,
        "meta_mean_anomaly": 321.1399,
        "meta_ephemeris_type": 0,
        "meta_classification_type": "U",
        "meta_norad_cat_id": 37336,
        "meta_element_set_no": 999,
        "meta_rev_at_epoch": 65185,
        "meta_bstar": 6.9199726e-05,
        "meta_mean_motion_dot": 1.63e-06,
        "meta_mean_motion_ddot": 0,
        "tle_line1": "1 37336U 93036BLC 25351.31473583  .00000163  00000+0  69200-4 0  9993",
        "tle_line2": "2 37336  74.0414 322.8603 0029016  39.1846 321.1399 14.32760586651852"
      },
      "geometry": {
        "type": "Point",
        "coordinates": [
          -174.75386728409757,
          -69.15455480171521
        ]
      }
    },
    {
      "type": "Feature",
      "properties": {
        "norad_id": 37340,
        "name": "COSMOS 2251 DEB",
        "group": "cosmos-2251-debris",
        "lat": -54.01973098530932,
        "lon": 105.59132370711842,
        "alt_km": 781.3932105104295,
        "timestamp": "2025-12-20T18:51:32.110849+00:00",
        "meta_object_name": "COSMOS 2251 DEB",
        "meta_object_id": "1993-036BLG",
        "meta_epoch": "2025-12-19T03:19:36.196032",
        "meta_mean_motion": 14.36930541,
        "meta_eccentricity": 0.00180628,
        "meta_inclination": 74.0254,
        "meta_ra_of_asc_node": 265.3825,
        "meta_arg_of_pericenter": 358.9051,
        "meta_mean_anomaly": 1.206,
        "meta_ephemeris_type": 0,
        "meta_classification_type": "U",
        "meta_norad_cat_id": 37340,
        "meta_element_set_no": 999,
        "meta_rev_at_epoch": 84159,
        "meta_bstar": 0.00014760605,
        "meta_mean_motion_dot": 4.11e-06,
        "meta_mean_motion_ddot": 0,
        "tle_line1": "1 37340U 93036BLG 25353.13861338  .00000411  00000+0  14761-3 0  9996",
        "tle_line2": "2 37340  74.0254 265.3825 0018062 358.9051   1.2060 14.36930541841592"
      },
      "geometry": {
        "type": "Point",
        "coordinates": [
          105.59132370711842,
          -54.01973098530932
        ]
      }
    },
    {
      "type": "Feature",
      "properties": {
        "norad_id": 37483,
        "name": "COSMOS 2251 DEB",
        "group": "cosmos-2251-debris",
        "lat": -1.6826931344562814,
        "lon": -51.19170197490583,
        "alt_km": 807.8644820752015,
        "timestamp": "2025-12-20T18:51:32.110859+00:00",
        "meta_object_name": "COSMOS 2251 DEB",
        "meta_object_id": "1993-036BLL",
        "meta_epoch": "2025-12-19T15:24:15.613632",
        "meta_mean_motion": 14.43565885,
        "meta_eccentricity": 0.0093433,
        "meta_inclination": 73.9738,
        "meta_ra_of_asc_node": 130.458,
        "meta_arg_of_pericenter": 335.3971,
        "meta_mean_anomaly": 24.2741,
        "meta_ephemeris_type": 0,
        "meta_classification_type": "U",
        "meta_norad_cat_id": 37483,
        "meta_element_set_no": 999,
        "meta_rev_at_epoch": 65379,
        "meta_bstar": 0.00014162,
        "meta_mean_motion_dot": 4.76e-06,
        "meta_mean_motion_ddot": 0,
        "tle_line1": "1 37483U 93036BLL 25353.64184738  .00000476  00000+0  14162-3 0  9998",
        "tle_line2": "2 37483  73.9738 130.4580 0093433 335.3971  24.2741 14.43565885653797"
      },
      "geometry": {
        "type": "Point",
        "coordinates": [
          -51.19170197490583,
          -1.6826931344562814
        ]
      }
    },
    {
      "type": "Feature",
      "properties": {
        "norad_id": 37484,
        "name": "COSMOS 2251 DEB",
        "group": "cosmos-2251-debris",
        "lat": 19.445798637244497,
        "lon": -160.78060804030724,
        "alt_km": 777.4204201016928,
        "timestamp": "2025-12-20T18:51:32.110869+00:00",
        "meta_object_name": "COSMOS 2251 DEB",
        "meta_object_id": "1993-036BLM",
        "meta_epoch": "2025-12-18T07:38:27.570624",
        "meta_mean_motion": 14.41807924,
        "meta_eccentricity": 0.00394245,
        "meta_inclination": 73.8227,
        "meta_ra_of_asc_node": 197.9673,
        "meta_arg_of_pericenter": 231.9462,
        "meta_mean_anomaly": 306.1628,
        "meta_ephemeris_type": 0,
        "meta_classification_type": "U",
        "meta_norad_cat_id": 37484,
        "meta_element_set_no": 999,
        "meta_rev_at_epoch": 65459,
        "meta_bstar": 0.0005692289,
        "meta_mean_motion_dot": 1.85e-05,
        "meta_mean_motion_ddot": 0,
        "tle_line1": "1 37484U 93036BLM 25352.31837466  .00001850  00000+0  56923-3 0  9993",
        "tle_line2": "2 37484  73.8227 197.9673 0039424 231.9462 306.1628 14.41807924654593"
      },
      "geometry": {
        "type": "Point",
        "coordinates": [
          -160.78060804030724,
          19.445798637244497
        ]
      }
    },
    {
      "type": "Feature",
      "properties": {
        "norad_id": 37486,
        "name": "COSMOS 2251 DEB",
        "group": "cosmos-2251-debris",
        "lat": 4.704649731569084,
        "lon": -81.32773303879797,
        "alt_km": 995.4807962783952,
        "timestamp": "2025-12-20T18:51:32.110879+00:00",
        "meta_object_name": "COSMOS 2251 DEB",
        "meta_object_id": "1993-036BLP",
        "meta_epoch": "2025-12-17T02:32:52.709568",
        "meta_mean_motion": 14.133616,
        "meta_eccentricity": 0.02300438,
        "meta_inclination": 73.6918,
        "meta_ra_of_asc_node": 106.7033,
        "meta_arg_of_pericenter": 334.068,
        "meta_mean_anomaly": 206.8915,
        "meta_ephemeris_type": 0,
        "meta_classification_type": "U",
        "meta_norad_cat_id": 37486,
        "meta_element_set_no": 999,
        "meta_rev_at_epoch": 63431,
        "meta_bstar": 0.0015394853,
        "meta_mean_motion_dot": 3.693e-05,
        "meta_mean_motion_ddot": 0,
        "tle_line1": "1 37486U 93036BLP 25351.10616562  .00003693  00000+0  15395-2 0  9997",
        "tle_line2": "2 37486  73.6918 106.7033 0230043 334.0680 206.8915 14.13361600634313"
      },
      "geometry": {
        "type": "Point",
        "coordinates": [
          -81.32773303879797,
          4.704649731569084
        ]
      }
    }
  ]
}